start=new Date('2022-01-24T00:00:00.000Z').valueOf();
sats=[{"TIME_SYSTEM":"UTC","REF_FRAME":"TEME","ECCENTRICITY":"0.00016930","PERIAPSIS":"546.003","PERIOD":"95.591","BSTAR":"0.00029580000000","EPHEMERIS_TYPE":"0","TLE_LINE1":"1 47548U 21009A   22023.74026135  .00004129  00000-0  29580-3 0  9990","ARG_OF_PERICENTER":"64.9028","LAUNCH_DATE":"2021-02-04","SEMIMAJOR_AXIS":"6925.311","INCLINATION":"53.0534","MEAN_MOTION_DOT":"0.00004129","OBJECT_NAME":"STARLINK-1782","SITE":"AFETR","TLE_LINE2":"2 47548  53.0534 292.1005 0001693  64.9028 295.2136 15.06412289 54552","MEAN_MOTION":"15.06412289","COUNTRY_CODE":"US","NORAD_CAT_ID":"47548","CENTER_NAME":"EARTH","CLASSIFICATION_TYPE":"U","MEAN_MOTION_DDOT":"0.0000000000000","REV_AT_EPOCH":"5455","DECAY_DATE":null,"GP_ID":"194472997","OBJECT_TYPE":"PAYLOAD","RA_OF_ASC_NODE":"292.1005","MEAN_ANOMALY":"295.2136","OBJECT_ID":"2021-009A","FILE":"3281176","RCS_SIZE":"LARGE","ELEMENT_SET_NO":"999","APOAPSIS":"548.348","EPOCH":"2022-01-23T17:45:58.580640","MEAN_ELEMENT_THEORY":"SGP4"},{"MEAN_MOTION_DDOT":"0.0000000000000","REV_AT_EPOCH":"5452","DECAY_DATE":null,"GP_ID":"194472995","OBJECT_TYPE":"PAYLOAD","RA_OF_ASC_NODE":"293.3010","MEAN_ANOMALY":"290.6317","OBJECT_ID":"2021-009B","FILE":"3281176","RCS_SIZE":"LARGE","APOAPSIS":"548.411","EPOCH":"2022-01-23T11:18:30.931776","ELEMENT_SET_NO":"999","MEAN_ELEMENT_THEORY":"SGP4","OBJECT_NAME":"STARLINK-1806","SITE":"AFETR","TLE_LINE2":"2 47549  53.0553 293.3010 0001799  69.4865 290.6317 15.06415924 54525","COUNTRY_CODE":"US","MEAN_MOTION":"15.06415924","NORAD_CAT_ID":"47549","CENTER_NAME":"EARTH","CLASSIFICATION_TYPE":"U","EPHEMERIS_TYPE":"0","TLE_LINE1":"1 47549U 21009B   22023.47119134  .00003743  00000-0  26991-3 0  9997","ARG_OF_PERICENTER":"69.4865","LAUNCH_DATE":"2021-02-04","SEMIMAJOR_AXIS":"6925.300","INCLINATION":"53.0553","MEAN_MOTION_DOT":"0.00003743","TIME_SYSTEM":"UTC","REF_FRAME":"TEME","ECCENTRICITY":"0.00017990","PERIAPSIS":"545.919","PERIOD":"95.591","BSTAR":"0.00026991000000"},{"TIME_SYSTEM":"UTC","ECCENTRICITY":"0.00017410","REF_FRAME":"TEME","PERIAPSIS":"545.994","BSTAR":"0.00044811000000","PERIOD":"95.592","EPHEMERIS_TYPE":"0","ARG_OF_PERICENTER":"68.0524","TLE_LINE1":"1 47550U 21009C   22023.41683767  .00006400  00000-0  44811-3 0  9995","LAUNCH_DATE":"2021-02-04","SEMIMAJOR_AXIS":"6925.335","INCLINATION":"53.0539","MEAN_MOTION_DOT":"0.00006400","OBJECT_NAME":"STARLINK-1909","SITE":"AFETR","TLE_LINE2":"2 47550  53.0539 283.5516 0001741  68.0524 292.0650 15.06404409 54046","NORAD_CAT_ID":"47550","MEAN_MOTION":"15.06404409","COUNTRY_CODE":"US","CLASSIFICATION_TYPE":"U","CENTER_NAME":"EARTH","REV_AT_EPOCH":"5404","MEAN_MOTION_DDOT":"0.0000000000000","GP_ID":"194463865","DECAY_DATE":null,"RA_OF_ASC_NODE":"283.5516","OBJECT_TYPE":"PAYLOAD","MEAN_ANOMALY":"292.0650","FILE":"3280923","OBJECT_ID":"2021-009C","MEAN_ELEMENT_THEORY":"SGP4","RCS_SIZE":"LARGE","ELEMENT_SET_NO":"999","APOAPSIS":"548.406","EPOCH":"2022-01-23T10:00:14.774688"},{"MEAN_MOTION":"15.06409382","COUNTRY_CODE":"US","NORAD_CAT_ID":"47551","CENTER_NAME":"EARTH","CLASSIFICATION_TYPE":"U","OBJECT_NAME":"STARLINK-1938","SITE":"AFETR","TLE_LINE2":"2 47551  53.0552 303.2669 0001707  69.1716 290.9456 15.06409382 53773","MEAN_ANOMALY":"290.9456","OBJECT_ID":"2021-009D","FILE":"3280923","RCS_SIZE":"LARGE","APOAPSIS":"548.367","EPOCH":"2022-01-23T11:27:49.871520","ELEMENT_SET_NO":"999","MEAN_ELEMENT_THEORY":"SGP4","MEAN_MOTION_DDOT":"0.0000000000000","REV_AT_EPOCH":"5377","DECAY_DATE":null,"GP_ID":"194464117","OBJECT_TYPE":"PAYLOAD","RA_OF_ASC_NODE":"303.2669","PERIAPSIS":"546.003","PERIOD":"95.592","BSTAR":"0.00037117000000","TIME_SYSTEM":"UTC","REF_FRAME":"TEME","ECCENTRICITY":"0.00017070","INCLINATION":"53.0552","MEAN_MOTION_DOT":"0.00005253","EPHEMERIS_TYPE":"0","TLE_LINE1":"1 47551U 21009D   22023.47766055  .00005253  00000-0  37117-3 0  9990","ARG_OF_PERICENTER":"69.1716","LAUNCH_DATE":"2021-02-04","SEMIMAJOR_AXIS":"6925.320"},{"EPOCH":"2022-01-23T11:34:26.558112","RCS_SIZE":"LARGE","APOAPSIS":"548.368","ELEMENT_SET_NO":"999","MEAN_ELEMENT_THEORY":"SGP4","OBJECT_ID":"2021-009E","FILE":"3280923","MEAN_ANOMALY":"293.1583","OBJECT_TYPE":"PAYLOAD","RA_OF_ASC_NODE":"293.2524","DECAY_DATE":null,"GP_ID":"194464360","MEAN_MOTION_DDOT":"0.0000000000000","REV_AT_EPOCH":"5391","CENTER_NAME":"EARTH","CLASSIFICATION_TYPE":"U","MEAN_MOTION":"15.06428222","COUNTRY_CODE":"US","NORAD_CAT_ID":"47552","TLE_LINE2":"2 47552  53.0537 293.2524 0001792  66.9595 293.1583 15.06428222 53915","SITE":"AFETR","OBJECT_NAME":"STARLINK-1940","MEAN_MOTION_DOT":"0.00009071","INCLINATION":"53.0537","SEMIMAJOR_AXIS":"6925.262","LAUNCH_DATE":"2021-02-04","TLE_LINE1":"1 47552U 21009E   22023.48225183  .00009071  00000-0  62661-3 0  9998","ARG_OF_PERICENTER":"66.9595","EPHEMERIS_TYPE":"0","PERIOD":"95.590","BSTAR":"0.00062661000000","PERIAPSIS":"545.886","REF_FRAME":"TEME","ECCENTRICITY":"0.00017920","TIME_SYSTEM":"UTC"},{"SEMIMAJOR_AXIS":"6817.735","LAUNCH_DATE":"2021-02-04","TLE_LINE1":"1 47553U 21009F   22023.69328469  .00018607  00000-0  43529-3 0  9990","ARG_OF_PERICENTER":"46.0642","EPHEMERIS_TYPE":"0","MEAN_MOTION_DOT":"0.00018607","INCLINATION":"53.0554","REF_FRAME":"TEME","ECCENTRICITY":"0.00016450","TIME_SYSTEM":"UTC","PERIOD":"93.373","BSTAR":"0.00043529000000","PERIAPSIS":"438.479","OBJECT_TYPE":"PAYLOAD","RA_OF_ASC_NODE":"282.0473","DECAY_DATE":null,"GP_ID":"194470444","MEAN_MOTION_DDOT":"0.0000000000000","REV_AT_EPOCH":"5469","RCS_SIZE":"LARGE","APOAPSIS":"440.722","ELEMENT_SET_NO":"999","EPOCH":"2022-01-23T16:38:19.797216","MEAN_ELEMENT_THEORY":"SGP4","OBJECT_ID":"2021-009F","FILE":"3281076","MEAN_ANOMALY":"314.0498","TLE_LINE2":"2 47553  53.0554 282.0473 0001645  46.0642 314.0498 15.42206676 54694","SITE":"AFETR","OBJECT_NAME":"STARLINK-1951","CENTER_NAME":"EARTH","CLASSIFICATION_TYPE":"U","COUNTRY_CODE":"US","MEAN_MOTION":"15.42206676","NORAD_CAT_ID":"47553"},{"INCLINATION":"53.0560","MEAN_MOTION_DOT":"-0.00000613","ARG_OF_PERICENTER":"89.2315","TLE_LINE1":"1 47554U 21009G   22023.81950640 -.00000613  00000-0 -22299-4 0  9999","EPHEMERIS_TYPE":"0","SEMIMAJOR_AXIS":"6925.364","LAUNCH_DATE":"2021-02-04","PERIAPSIS":"546.853","BSTAR":"-0.00002229900000","PERIOD":"95.592","TIME_SYSTEM":"UTC","ECCENTRICITY":"0.00005440","REF_FRAME":"TEME","MEAN_ANOMALY":"270.8736","MEAN_ELEMENT_THEORY":"SGP4","APOAPSIS":"547.606","RCS_SIZE":"LARGE","EPOCH":"2022-01-23T19:40:05.352960","ELEMENT_SET_NO":"999","FILE":"3281076","OBJECT_ID":"2021-009G","REV_AT_EPOCH":"5429","MEAN_MOTION_DDOT":"0.0000000000000","RA_OF_ASC_NODE":"311.7369","OBJECT_TYPE":"PAYLOAD","GP_ID":"194470443","DECAY_DATE":null,"NORAD_CAT_ID":"47554","COUNTRY_CODE":"US","MEAN_MOTION":"15.06394882","CLASSIFICATION_TYPE":"U","CENTER_NAME":"EARTH","SITE":"AFETR","OBJECT_NAME":"STARLINK-1953","TLE_LINE2":"2 47554  53.0560 311.7369 0000544  89.2315 270.8736 15.06394882 54296"},{"LAUNCH_DATE":"2021-02-04","SEMIMAJOR_AXIS":"6925.304","EPHEMERIS_TYPE":"0","TLE_LINE1":"1 47555U 21009H   22023.46289918  .00006218  00000-0  43580-3 0  9994","ARG_OF_PERICENTER":"72.5926","MEAN_MOTION_DOT":"0.00006218","INCLINATION":"53.0537","REF_FRAME":"TEME","ECCENTRICITY":"0.00014460","TIME_SYSTEM":"UTC","PERIOD":"95.591","BSTAR":"0.00043580000000","PERIAPSIS":"546.168","DECAY_DATE":null,"GP_ID":"194464617","OBJECT_TYPE":"PAYLOAD","RA_OF_ASC_NODE":"303.3365","MEAN_MOTION_DDOT":"0.0000000000000","REV_AT_EPOCH":"5377","OBJECT_ID":"2021-009H","FILE":"3280923","RCS_SIZE":"LARGE","EPOCH":"2022-01-23T11:06:34.489152","APOAPSIS":"548.170","ELEMENT_SET_NO":"999","MEAN_ELEMENT_THEORY":"SGP4","MEAN_ANOMALY":"287.5221","TLE_LINE2":"2 47555  53.0537 303.3365 0001446  72.5926 287.5221 15.06414535 53773","OBJECT_NAME":"STARLINK-1954","SITE":"AFETR","CLASSIFICATION_TYPE":"U","CENTER_NAME":"EARTH","COUNTRY_CODE":"US","MEAN_MOTION":"15.06414535","NORAD_CAT_ID":"47555"},{"INCLINATION":"53.0552","MEAN_MOTION_DOT":"0.00008655","EPHEMERIS_TYPE":"0","ARG_OF_PERICENTER":"61.4945","TLE_LINE1":"1 47556U 21009J   22023.56427844  .00008655  00000-0  59902-3 0  9990","LAUNCH_DATE":"2021-02-04","SEMIMAJOR_AXIS":"6925.309","PERIAPSIS":"545.929","BSTAR":"0.00059902000000","PERIOD":"95.591","TIME_SYSTEM":"UTC","ECCENTRICITY":"0.00017970","REF_FRAME":"TEME","MEAN_ANOMALY":"298.6225","FILE":"3280923","OBJECT_ID":"2021-009J","MEAN_ELEMENT_THEORY":"SGP4","RCS_SIZE":"LARGE","APOAPSIS":"548.418","EPOCH":"2022-01-23T13:32:33.657216","ELEMENT_SET_NO":"999","REV_AT_EPOCH":"5350","MEAN_MOTION_DDOT":"0.0000000000000","GP_ID":"194464860","DECAY_DATE":null,"RA_OF_ASC_NODE":"322.8722","OBJECT_TYPE":"PAYLOAD","NORAD_CAT_ID":"47556","COUNTRY_CODE":"US","MEAN_MOTION":"15.06412981","CLASSIFICATION_TYPE":"U","CENTER_NAME":"EARTH","OBJECT_NAME":"STARLINK-1955","SITE":"AFETR","TLE_LINE2":"2 47556  53.0552 322.8722 0001797  61.4945 298.6225 15.06412981 53502"},{"TLE_LINE2":"2 47557  53.0544 323.0557 0001870  54.8740 305.2424 15.06393417 53502","OBJECT_NAME":"STARLINK-1956","SITE":"AFETR","CENTER_NAME":"EARTH","CLASSIFICATION_TYPE":"U","COUNTRY_CODE":"US","MEAN_MOTION":"15.06393417","NORAD_CAT_ID":"47557","DECAY_DATE":null,"GP_ID":"194463117","OBJECT_TYPE":"PAYLOAD","RA_OF_ASC_NODE":"323.0557","MEAN_MOTION_DDOT":"0.0000000000000","REV_AT_EPOCH":"5350","OBJECT_ID":"2021-009K","FILE":"3280923","RCS_SIZE":"LARGE","EPOCH":"2022-01-23T12:39:28.274976","APOAPSIS":"548.529","ELEMENT_SET_NO":"999","MEAN_ELEMENT_THEORY":"SGP4","MEAN_ANOMALY":"305.2424","REF_FRAME":"TEME","ECCENTRICITY":"0.00018700","TIME_SYSTEM":"UTC","PERIOD":"95.593","BSTAR":"0.00005001200000","PERIAPSIS":"545.939","LAUNCH_DATE":"2021-02-04","SEMIMAJOR_AXIS":"6925.369","EPHEMERIS_TYPE":"0","TLE_LINE1":"1 47557U 21009K   22023.52741059  .00000463  00000-0  50012-4 0  9997","ARG_OF_PERICENTER":"54.8740","MEAN_MOTION_DOT":"0.00000463","INCLINATION":"53.0544"}];
